OSCAR 7 (AO-7)          
1 07530U 74089B   19165.94879115 -.00000047  00000-0 -15056-4 0  9993
2 07530 101.7434 133.6480 0012237 356.6494  37.5628 12.53638476 40059
UOSAT 2 (UO-11)         
1 14781U 84021B   19165.65206701  .00000067  00000-0  14343-4 0  9997
2 14781  97.6108 190.5619 0007892 343.4213  16.6742 14.83089982898161
LUSAT (LO-19)           
1 20442U 90005G   19165.82864636 -.00000016  00000-0  10236-4 0  9995
2 20442  98.6484 107.8350 0012157 155.5645 204.6117 14.32926868535760
ITAMSAT (IO-26)         
1 22826U 93061D   19166.00411894 -.00000014  00000-0  12366-4 0  9997
2 22826  98.8967 154.5488 0009000   6.0717 354.0572 14.30393918341627
RADIO ROSTO (RS-15)     
1 23439U 94085A   19165.87979309 -.00000052  00000-0 -28551-3 0  9994
2 23439  64.8155 122.2884 0146213 113.9612 247.6700 11.27568151  7469
JAS-2 (FO-29)           
1 24278U 96046B   19165.92618213 -.00000032  00000-0  61613-5 0  9990
2 24278  98.5364 319.8479 0349306 249.7255 106.6020 13.53091937127040
TECHSAT 1B (GO-32)      
1 25397U 98043D   19165.82433840 -.00000033  00000-0  46807-5 0  9991
2 25397  98.6886 106.0152 0002300  67.0346 293.1074 14.23666511 87106
ISS (ZARYA)             
1 25544U 98067A   19166.06754760  .00000725  00000-0  19993-4 0  9997
2 25544  51.6441  11.8198 0008144  50.3511  86.4820 15.51199287174922
PCSAT (NO-44)           
1 26931U 01043C   19165.93505699 -.00000016  00000-0  25638-4 0  9993
2 26931  67.0518  13.3749 0006620 279.3593  80.6760 14.30544505924361
SAUDISAT 1C (SO-50)     
1 27607U 02058C   19165.95462490 -.00000053  00000-0  13506-4 0  9996
2 27607  64.5559  61.0226 0081482 257.2536 101.9450 14.75552153886356
CUTE-1 (CO-55)          
1 27844U 03031E   19165.92420903  .00000039  00000-0  37384-4 0  9994
2 27844  98.6834 174.1942 0010741  47.4802 312.7281 14.22180930827710
CUBESAT XI-IV (CO-57)   
1 27848U 03031J   19165.91527452  .00000032  00000-0  34315-4 0  9998
2 27848  98.6913 174.6848 0010782  57.6620 302.5600 14.21775624827573
MOZHAYETS 4 (RS-22)     
1 27939U 03042A   19166.09151420  .00000065  00000-0  20277-4 0  9997
2 27939  98.0397 301.9786 0014348  80.7677 279.5129 14.66784406840011
CUBESAT XI-V            
1 28895U 05043F   19165.88517707  .00000078  00000-0  23791-4 0  9990
2 28895  97.9587 308.7467 0016865   8.8393 351.3103 14.63667671726694
CUTE-1.7+APD II (CO-65) 
1 32785U 08021C   19165.85326015  .00000156  00000-0  22504-4 0  9997
2 32785  97.5491 165.7489 0011459 276.8139  83.1775 14.88309345603115
DELFI-C3 (DO-64)        
1 32789U 08021G   19165.83319357  .00001025  00000-0  72519-4 0  9997
2 32789  97.4642 215.6155 0013540 133.7616 226.4735 15.06942247606289
SEEDS II (CO-66)        
1 32791U 08021J   19166.01243019  .00000232  00000-0  28902-4 0  9998
2 32791  97.5276 171.8706 0011779 247.7769 112.2200 14.90818916603562
YUBILEINY (RS-30)       
1 32953U 08025A   19166.10330573  .00000021  00000-0  75656-4 0  9998
2 32953  82.4994 146.9963 0019976 133.8018 226.4713 12.43089941501860
KKS-1 (KISEKI)          
1 33499U 09002H   19166.14827282  .00000092  00000-0  21652-4 0  9997
2 33499  98.3505   4.7433 0008411 211.0184 149.0529 14.75441140558708
SWISSCUBE               
1 35932U 09051B   19165.88667086  .00000096  00000-0  32816-4 0  9997
2 35932  98.5875 331.7483 0007882 168.0943 192.0441 14.56283999516189
BEESAT-1                
1 35933U 09051C   19165.75246489  .00000079  00000-0  28912-4 0  9997
2 35933  98.5902 333.3666 0005791 178.5690 181.5524 14.56373190516238
ITUPSAT1                
1 35935U 09051E   19165.87661056  .00000061  00000-0  25305-4 0  9997
2 35935  98.6013 333.7329 0008130 178.9619 181.1596 14.55533441516050
XIWANG-1 (HOPE-1)       
1 36122U 09072B   19166.08751725 -.00000042  00000-0  15442-5 0  9998
2 36122 100.0724 168.6383 0007478   0.4851 359.6281 13.16349794456409
JUGNU                   
1 37839U 11058B   19165.63788444  .00000296  00000-0  15906-4 0  9993
2 37839  19.9629 359.3605 0018872 282.3073 137.8020 14.12652243396683
SRMSAT                  
1 37841U 11058D   19165.89870086  .00000271  00000-0  37981-5 0  9999
2 37841  19.9731  54.4721 0011958 154.7350 292.3507 14.10633287396064
M-CUBED & EXP-1 PRIME   
1 37855U 11061F   19166.14384712  .00000877  00000-0  51652-4 0  9995
2 37855 101.7153  59.9221 0173774  87.2995 274.8093 15.05402907416248
STRAND-1                
1 39090U 13009E   19165.81194901  .00000037  00000-0  28221-4 0  9998
2 39090  98.4889  11.8362 0008131 305.5813  54.4615 14.35086884329813
SOMP                    
1 39134U 13015E   19165.87319015  .00000807  00000-0  46272-4 0  9996
2 39134  64.8639  32.8100 0030031 303.4728  56.3529 15.20146160339636
BEESAT-3                
1 39135U 13015F   19165.85449351  .00000757  00000-0  47368-4 0  9993
2 39135  64.8693  51.1132 0020409 323.0968  36.8753 15.17456226339273
BEESAT-2                
1 39136U 13015G   19166.15376074  .00000642  00000-0  42322-4 0  9997
2 39136  64.8700  53.9599 0019130 301.8204  58.1059 15.16884947339636
ZACUBE-1 (TSHEPISOSAT)  
1 39417U 13066B   19165.85425804  .00000164  00000-0  26844-4 0  9997
2 39417  97.5623 179.5718 0060168  47.6987 312.9303 14.81112929300471
GOMX-1                  
1 39430U 13066Q   19165.98824460  .00000155  00000-0  37525-4 0  9995
2 39430  97.7462 122.7842 0149734 266.0744  92.3328 14.59251015296062
CUBEBUG-2 (LO-74)       
1 39440U 13066AA  19165.95447129  .00000158  00000-0  28770-4 0  9991
2 39440  97.6016 164.6123 0081882  96.9976 264.0556 14.75851177299427
FUNCUBE-1 (AO-73)       
1 39444U 13066AE  19165.85693848  .00000195  00000-0  30294-4 0  9990
2 39444  97.5604 181.5161 0059150  41.7536 318.8169 14.81930936298779
UWE-3                   
1 39446U 13066AG  19165.89730798  .00000168  00000-0  28834-4 0  9999
2 39446  97.5808 171.5759 0071593  72.8938 288.0099 14.78385652298118
SPROUT                  
1 39770U 14029E   19166.06592047  .00000632  00000-0  76021-4 0  9999
2 39770  97.8841 269.3826 0010566  95.7407 264.5000 14.87334726274297
UNISAT-6                
1 40012U 14033C   19166.14576496  .00000128  00000-0  26346-4 0  9999
2 40012  97.7583  32.9107 0059758 108.7914 251.9791 14.73975427268160
DUCHIFAT-1              
1 40021U 14033M   19165.78494092  .00000256  00000-0  32013-4 0  9999
2 40021  97.9243  90.3656 0014411  65.4521 294.8197 14.90623735270960
QB50P1                  
1 40025U 14033R   19165.73525393  .00000206  00000-0  27872-4 0  9999
2 40025  97.9064  85.4257 0013933  74.1606 286.1145 14.88939116270738
NUDT-PHONESAT           
1 40900U 15049B   19166.15419819  .00001380  00000-0  62067-4 0  9990
2 40900  97.4366 175.5248 0012547 189.2344 227.9107 15.22758068207126
ZDPS 2A                 
1 40901U 15049C   19166.04969395  .00000487  00000-0  27470-4 0  9994
2 40901  97.4593 171.9258 0012484 209.6862 236.9934 15.17711655206685
ZDPS 2B                 
1 40902U 15049D   19166.20230532  .00000914  00000-0  48846-4 0  9992
2 40902  97.4535 169.5948 0012381 206.1767 218.0887 15.17524748206686
XW-2A                   
1 40903U 15049E   19166.13947005  .00001483  00000-0  36937-4 0  9995
2 40903  97.3385 208.8837 0014347 151.2570 273.6175 15.41823115209709
KAITUO 1A               
1 40904U 15049F   19166.22757199  .00000042  00000-0  57476-5 0  9991
2 40904  97.4663 168.2958 0013439 215.0797 205.1425 15.15354471206478
2015-049G               
1 40905U 15049G   19166.03636322  .00000300  00000-0  19939-4 0  9993
2 40905  97.4702 165.6687 0014684 210.1106 184.0935 15.14285266206325
XW-2C                   
1 40906U 15049H   19165.96955873  .00000228  00000-0  15441-4 0  9993
2 40906  97.4664 168.1104 0013748 207.0169 236.8626 15.15662198206438
XW-2D                   
1 40907U 15049J   19166.07181591  .00000442  00000-0  26541-4 0  9996
2 40907  97.4647 167.8887 0013281 203.2900 197.8136 15.15850174206465
LILACSAT-2              
1 40908U 15049K   19165.75887483 -.00000065  00000-0  19950-9 0  9997
2 40908  97.4782 166.4459 0014669 212.1607 233.4548 15.13791797206210
XW-2F                   
1 40910U 15049M   19165.97393676  .00000664  00000-0  36652-4 0  9997
2 40910  97.4621 169.7592 0014032 196.8814 218.8893 15.17276669206457
XW-2B                   
1 40911U 15049N   19165.97422230  .00000405  00000-0  24675-4 0  9992
2 40911  97.4670 168.4376 0013263 203.6634 208.0132 15.15780772206348
KAITUO 1B               
1 40912U 15049P   19166.07319072  .00000861  00000-0  43583-4 0  9999
2 40912  97.4495 173.4750 0014725 178.5732 219.4502 15.19585728206760
TIANWANG 1C (TW-1C)     
1 40926U 15051B   19166.10609615  .00008397  00000-0  12359-3 0  9994
2 40926  97.1365 212.2860 0008874  39.5335  12.6411 15.55644932209606
TIANWANG 1A (TW-1A)     
1 40928U 15051D   19166.04476502  .00002529  00000-0  63701-4 0  9995
2 40928  97.1454 197.4307 0013078  87.1177 326.8251 15.40744622208615
LAPAN-A2                
1 40931U 15052B   19166.03944250  .00000747  00000-0  14991-4 0  9996
2 40931   6.0001  82.6292 0012594 103.8097 256.4083 14.76608645200720
E-ST@R-II               
1 41459U 16025D   19166.21543829  .00000818  00000-0  46061-4 0  9992
2 41459  98.1016 252.5463 0167826  10.7199 349.7539 15.05449040172028
AAUSAT 4                
1 41460U 16025E   19166.19545496  .00000676  00000-0  38124-4 0  9996
2 41460  98.0949 253.7559 0158007   3.3693 356.8664 15.07315441172141
NUSAT-1 (FRESCO)        
1 41557U 16033B   19166.17835350  .00000878  00000-0  35679-4 0  9997
2 41557  97.4178 253.6983 0012541 315.4003  44.6226 15.27196223169553
BEESAT-4                
1 41619U 16040W   19165.70460676  .00001080  00000-0  48690-4 0  9990
2 41619  97.3677 228.0026 0012486  44.6011 315.6228 15.23109914153257
CAS-2T & KS-1Q          
1 41847U 16066G   19165.71208389  .00000049  00000-0  18771-4 0  9994
2 41847  98.7058 206.3770 0364862 246.7220 109.5173 14.37987194136425
NAYIF-1 (EO-88)         
1 42017U 17008BX  19165.76186843  .00001168  00000-0  48949-4 0  9999
2 42017  97.4033 232.8965 0006487 167.5251 192.6149 15.25508703129324
MAX VALIER SAT          
1 42778U 17036P   19165.84690093  .00000700  00000-0  33628-4 0  9999
2 42778  97.3546 223.5985 0010962 232.7688 127.2549 15.22002207109654
RADFXSAT (FOX-1B)       
1 43017U 17073E   19165.74072239  .00000246  00000-0  24655-4 0  9997
2 43017  97.7237  87.2566 0258400 170.9813 189.6176 14.78542343 84678
FOX-1D (AO-92)          
1 43137U 18004AC  19165.81975420  .00000754  00000-0  34651-4 0  9998
2 43137  97.4877 233.6311 0007616 270.0114  90.0250 15.23447566 78910
ES'HAIL 2               
1 43700U 18090A   19165.79957966  .00000136  00000-0  00000-0 0  9992
2 43700   0.0176  23.8384 0001272  55.8120 136.7700  1.00274964  2011
FOX-1CLIFF (AO-95)      
1 43770U 18099N   19165.75318410  .00000523  00000-0  53321-4 0  9997
2 43770  97.7454 237.6726 0014264 353.5813   6.5222 14.94762127 28838
ITASAT 1                
1 43786U 18099AE  19165.77091593 -.00000086  00000-0 -25063-5 0  9995
2 43786  97.7469 237.8398 0014814 347.2878  12.7967 14.95134689 28843
JY1SAT (JO-97)          
1 43803U 18099AX  19166.15754093  .00000445  00000-0  45675-4 0  9996
2 43803  97.7428 238.1467 0014686 347.0505  13.0336 14.95264600 28897
